NORAD_CAT_ID,OBJECT_NAME,OBJECT_TYPE,EPOCH,MEAN_MOTION,ECCENTRICITY,INCLINATION,RA_OF_ASC_NODE,ARG_OF_PERICENTER,MEAN_ANOMALY,BSTAR,MEAN_MOTION_DOT,MEAN_MOTION_DDOT,TLE_LINE0,TLE_LINE1,TLE_LINE2,SEMIMAJOR_AXIS,PERIOD,APOGEE,PERIGEE,DECAYED
54058.0,STARLINK-5167,PAYLOAD,2024-02-10 16:52:46,15.08853089,0.000168,53.2169,146.8609,106.7686,253.3491,9.5297e-05,1.229e-05,0.0,0 STARLINK-5167,1 54058U 22136H   24041.70331871  .00001229  00000-0  95297-4 0  9997,2 54058  53.2169 146.8609 0001680 106.7686 253.3491 15.08853089 72411,6917.84,95.437,540.868,538.543,0.0
54058.0,STARLINK-5167,PAYLOAD,2024-02-11 11:57:25,15.08841167,0.0001704,53.2174,143.2939,112.2795,247.8378,7.8734e-05,9.65e-06,0.0,0 STARLINK-5167,1 54058U 22136H   24042.49820637  .00000965  00000-0  78734-4 0  9990,2 54058  53.2174 143.2939 0001704 112.2795 247.8378 15.08841167 73017,6917.877,95.437,540.921,538.563,0.0
54058.0,STARLINK-5167,PAYLOAD,2024-02-11 13:32:47,15.08851953,0.0001641,53.2169,142.9944,117.1619,242.9541,0.00015591,2.195e-05,0.0,0 STARLINK-5167,1 54058U 22136H   24042.56443687  .00002195  00000-0  15591-3 0  9992,2 54058  53.2169 142.9944 0001641 117.1619 242.9541 15.08851953 72541,6917.844,95.437,540.844,538.574,0.0
54058.0,STARLINK-5167,PAYLOAD,2024-02-11 16:43:33,15.08853609,0.0001641,53.2169,142.3994,118.4343,241.6814,0.00016546,2.347e-05,0.0,0 STARLINK-5167,1 54058U 22136H   24042.69691483  .00002347  00000-0  16546-3 0  9995,2 54058  53.2169 142.3994 0001641 118.4343 241.6814 15.08853609 73043,6917.839,95.437,540.839,538.569,0.0
54058.0,STARLINK-5167,PAYLOAD,2024-02-12 11:48:11,15.0885364,0.0001375,53.2171,138.8343,90.8356,269.2794,5.0361e-06,-2.08e-06,0.0,0 STARLINK-5167,1 54058U 22136H   24043.49179850 -.00000208  00000-0  50361-5 0  9993,2 54058  53.2171 138.8343 0001375  90.8356 269.2794 15.08853640 73166,6917.839,95.437,540.655,538.752,0.0
54058.0,STARLINK-5167,PAYLOAD,2024-02-13 11:39:00,15.08832321,0.0001693,53.2178,134.3745,108.6893,251.4283,-0.00010023,-1.883e-05,0.0,0 STARLINK-5167,1 54058U 22136H   24044.48541874 -.00001883  00000-0 -10023-3 0  9992,2 54058  53.2178 134.3745 0001693 108.6893 251.4283 15.08832321 73313,6917.904,95.438,540.94,538.598,0.0
54058.0,STARLINK-5167,PAYLOAD,2024-02-13 13:14:22,15.08838117,0.0001233,53.2158,134.0765,104.4222,255.6907,-6.708e-05,-1.355e-05,0.0,0 STARLINK-5167,1 54058U 22136H   24044.55165409 -.00001355  00000-0 -67080-4 0  9996,2 54058  53.2158 134.0765 0001233 104.4222 255.6907 15.08838117 72845,6917.886,95.438,540.604,538.898,0.0
54058.0,STARLINK-5167,PAYLOAD,2024-02-13 16:25:09,15.08839609,0.000149,53.2166,133.4823,108.6325,251.4829,-3.0764e-05,-7.78e-06,0.0,0 STARLINK-5167,1 54058U 22136H   24044.68413416 -.00000778  00000-0 -30764-4 0  9991,2 54058  53.2166 133.4823 0001490 108.6325 251.4829 15.08839609 73347,6917.882,95.438,540.777,538.716,0.0
54058.0,STARLINK-5167,PAYLOAD,2024-02-14 13:05:08,15.08857197,0.0001452,53.2156,129.6155,85.3372,274.7785,0.00034246,5.169e-05,0.0,0 STARLINK-5167,1 54058U 22136H   24045.54524175  .00005169  00000-0  34246-3 0  9997,2 54058  53.2156 129.6155 0001452  85.3372 274.7785 15.08857197 72993,6917.828,95.436,540.697,538.688,0.0
54058.0,STARLINK-5167,PAYLOAD,2024-02-14 22:37:28,15.08841133,0.0001417,53.2158,127.8321,98.6701,261.4451,0.00025234,3.73e-05,0.0,0 STARLINK-5167,1 54058U 22136H   24045.94268952  .00003730  00000-0  25234-3 0  9998,2 54058  53.2158 127.8321 0001417  98.6701 261.4451 15.08841133 73531,6917.877,95.437,540.722,538.762,0.0
54058.0,STARLINK-5167,PAYLOAD,2024-02-15 11:20:34,15.08829265,0.0001857,53.2167,125.455,97.9993,262.121,7.3879e-05,8.88e-06,0.0,0 STARLINK-5167,1 54058U 22136H   24046.47261953  .00000888  00000-0  73879-4 0  9991,2 54058  53.2167 125.4550 0001857  97.9993 262.1210 15.08829265 73614,6917.913,95.438,541.063,538.494,0.0
54058.0,STARLINK-5167,PAYLOAD,2024-02-15 12:55:57,15.088336,0.000158,53.2155,125.1575,95.9809,264.1363,9.7665e-05,1.266e-05,0.0,0 STARLINK-5167,1 54058U 22136H   24046.53885719  .00001266  00000-0  97665-4 0  9990,2 54058  53.2155 125.1575 0001580  95.9809 264.1363 15.08833600 73149,6917.9,95.438,540.858,538.672,0.0
54058.0,STARLINK-5167,PAYLOAD,2024-02-15 22:28:15,15.08837301,0.0001381,53.2149,123.3719,96.3907,263.7242,4.2627e-05,3.91e-06,0.0,0 STARLINK-5167,1 54058U 22136H   24046.93629585  .00000391  00000-0  42627-4 0  9997,2 54058  53.2149 123.3719 0001381  96.3907 263.7242 15.08837301 73205,6917.889,95.438,540.709,538.798,0.0
54058.0,STARLINK-5167,PAYLOAD,2024-02-16 11:11:20,15.08851846,0.0001449,53.2151,120.9916,93.5644,266.5513,7.6449e-05,9.29e-06,0.0,0 STARLINK-5167,1 54058U 22136H   24047.46620825  .00000929  00000-0  76449-4 0  9990,2 54058  53.2151 120.9916 0001449  93.5644 266.5513 15.08851846 73765,6917.844,95.437,540.712,538.707,0.0
54058.0,STARLINK-5167,PAYLOAD,2024-02-16 14:22:06,15.08856672,0.0001494,53.2156,120.3962,95.7868,264.3294,0.00015244,2.14e-05,0.0,0 STARLINK-5167,1 54058U 22136H   24047.59868518  .00002140  00000-0  15244-3 0  9999,2 54058  53.2156 120.3962 0001494  95.7868 264.3294 15.08856672 73301,6917.829,95.437,540.728,538.661,0.0
54058.0,STARLINK-5167,PAYLOAD,2024-02-17 11:02:08,15.08842325,0.0001477,53.215,116.5342,97.5638,262.5522,0.00022476,3.291e-05,0.0,0 STARLINK-5167,1 54058U 22136H   24048.45981591  .00003291  00000-0  22476-3 0  9995,2 54058  53.2150 116.5342 0001477  97.5638 262.5522 15.08842325 73911,6917.873,95.437,540.76,538.717,0.0
54058.0,STARLINK-5167,PAYLOAD,2024-02-17 14:12:54,15.08845898,0.0001495,53.2151,115.9363,101.2102,258.9058,0.00022242,3.254e-05,0.0,0 STARLINK-5167,1 54058U 22136H   24048.59229351  .00003254  00000-0  22242-3 0  9999,2 54058  53.2151 115.9363 0001495 101.2102 258.9058 15.08845898 73457,6917.862,95.437,540.762,538.693,0.0
54058.0,STARLINK-5167,PAYLOAD,2024-02-18 10:52:54,15.08845549,0.0001568,53.2161,112.0691,89.7918,270.3254,0.00019592,2.832e-05,0.0,0 STARLINK-5167,1 54058U 22136H   24049.45341418  .00002832  00000-0  19592-3 0  9999,2 54058  53.2161 112.0691 0001568  89.7918 270.3254 15.08845549 73589,6917.863,95.437,540.813,538.644,0.0
54058.0,STARLINK-5167,PAYLOAD,2024-02-19 04:22:09,15.08837842,0.0001558,53.216,108.8006,89.2095,270.9076,7.0927e-05,8.41e-06,0.0,0 STARLINK-5167,1 54058U 22136H   24050.18205972  .00000841  00000-0  70927-4 0  9993,2 54058  53.2160 108.8006 0001558  89.2095 270.9076 15.08837842 74172,6917.887,95.438,540.83,538.674,0.0
54058.0,STARLINK-5167,PAYLOAD,2024-02-19 10:43:42,15.08844243,0.0001494,53.2158,107.6108,87.2643,272.852,0.0001852,2.661e-05,0.0,0 STARLINK-5167,1 54058U 22136H   24050.44701683  .00002661  00000-0  18520-3 0  9994,2 54058  53.2158 107.6108 0001494  87.2643 272.8520 15.08844243 73734,6917.867,95.437,540.766,538.699,0.0
54058.0,STARLINK-5167,PAYLOAD,2024-02-19 20:16:01,15.08841045,0.0001505,53.216,105.8284,86.433,273.6834,0.00011775,1.587e-05,0.0,0 STARLINK-5167,1 54058U 22136H   24050.84445844  .00001587  00000-0  11775-3 0  9993,2 54058  53.2160 105.8284 0001505  86.4330 273.6834 15.08841045 73799,6917.877,95.437,540.783,538.701,0.0
54058.0,STARLINK-5167,PAYLOAD,2024-02-20 10:34:29,15.0883485,0.0001661,53.2172,103.1548,96.1899,263.9282,3.9406e-06,-2.25e-06,0.0,0 STARLINK-5167,1 54058U 22136H   24051.44062387 -.00000225  00000-0  39406-5 0  9999,2 54058  53.2172 103.1548 0001661  96.1899 263.9282 15.08834850 74366,6917.896,95.438,540.91,538.612,0.0
54058.0,STARLINK-5167,PAYLOAD,2024-02-20 20:06:48,15.08837693,0.0001667,53.2173,101.3705,94.5548,265.5634,9.1899e-08,-2.87e-06,0.0,0 STARLINK-5167,1 54058U 22136H   24051.83806330 -.00000287  00000-0  91899-7 0  9990,2 54058  53.2173 101.3705 0001667  94.5548 265.5634 15.08837693 73941,6917.887,95.438,540.906,538.599,0.0
54058.0,STARLINK-5167,PAYLOAD,2024-02-21 12:00:39,15.08849884,0.0001577,53.2165,98.3957,91.5469,268.5704,0.00021125,3.077e-05,0.0,0 STARLINK-5167,1 54058U 22136H   24052.50045730  .00003077  00000-0  21125-3 0  9994,2 54058  53.2165  98.3957 0001577  91.5469 268.5704 15.08849884 74526,6917.85,95.437,540.806,538.624,0.0
54058.0,STARLINK-5167,PAYLOAD,2024-02-21 19:57:34,15.08855096,0.000164,53.2164,96.9086,86.501,273.6169,0.00023793,3.502e-05,0.0,0 STARLINK-5167,1 54058U 22136H   24052.83165326  .00003502  00000-0  23793-3 0  9990,2 54058  53.2164  96.9086 0001640  86.5010 273.6169 15.08855096 74095,6917.834,95.437,540.834,538.565,0.0
54058.0,STARLINK-5167,PAYLOAD,2024-02-22 11:51:25,15.08871004,0.0001406,53.2153,93.9322,84.9255,275.1898,0.00050085,7.699e-05,0.0,0 STARLINK-5167,1 54058U 22136H   24053.49404110  .00007699  00000-0  50085-3 0  9995,2 54058  53.2153  93.9322 0001406  84.9255 275.1898 15.08871004 74673,6917.786,95.436,540.623,538.678,0.0
54058.0,STARLINK-5167,PAYLOAD,2024-02-22 19:48:21,15.08854267,0.0001404,53.2156,92.4476,86.7186,273.3967,5.7427e-05,6.26e-06,0.0,0 STARLINK-5167,1 54058U 22136H   24053.82524427  .00000626  00000-0  57427-4 0  9997,2 54058  53.2156  92.4476 0001404  86.7186 273.3967 15.08854267 74726,6917.837,95.437,540.673,538.731,0.0
54058.0,STARLINK-5167,PAYLOAD,2024-02-23 02:09:54,15.08826398,0.0001122,53.2156,91.258,95.4641,264.6479,-0.00075857,-0.00012335,0.0,0 STARLINK-5167,1 54058U 22136H   24054.09020859 -.00012335  00000-0 -75857-3 0  9995,2 54058  53.2156  91.2580 0001122  95.4641 264.6479 15.08826398 74768,6917.922,95.438,540.563,539.011,0.0
54058.0,STARLINK-5167,PAYLOAD,2024-02-23 10:06:49,15.08826186,0.0001268,53.2149,89.7712,96.0071,264.1066,-0.00017288,-3.037e-05,0.0,0 STARLINK-5167,1 54058U 22136H   24054.42141055 -.00003037  00000-0 -17288-3 0  9997,2 54058  53.2149  89.7712 0001268  96.0071 264.1066 15.08826186 74339,6917.923,95.438,540.665,538.91,0.0
54058.0,STARLINK-5167,PAYLOAD,2024-02-23 19:39:09,15.08820498,0.0001215,53.2143,87.9862,99.5903,260.5227,0.0004322,6.594e-05,0.0,0 STARLINK-5167,1 54058U 22136H   24054.81885892  .00006594  00000-0  43220-3 0  9998,2 54058  53.2143  87.9862 0001215  99.5903 260.5227 15.08820498 74398,6917.94,95.439,540.646,538.964,0.0
